ONEWEB-0611             
1 54674U 22166AJ  26063.56982417  .00000081  00000+0  16375-3 0  9995
2 54674  87.9163 264.8436 0001719  95.1436 264.9895 13.21827955157628
ONEWEB-0612             
1 54675U 22166AK  26063.50729687  .00000137  00000+0  29974-3 0  9999
2 54675  87.9176 264.8394 0001443  88.8433 271.2866 13.21826558157601
ONEWEB-0615             
1 54676U 22166AL  26063.56324198  .00000060  00000+0  11424-3 0  9990
2 54676  87.9164 264.8523 0001553  90.4548 269.6763 13.21825829157620
ONEWEB-0655             
1 54677U 22166AM  26063.46286157  .00000047  00000+0  82155-4 0  9997
2 54677  87.9164 264.8753 0001359  96.0801 264.0488 13.21826048157609
ONEWEB-0659             
1 54678U 22166AN  26063.78209457  .00000051  00000+0  92250-4 0  9993
2 54678  87.9163 264.8117 0001683  90.0468 270.0859 13.21827035157736
ONEWEB-0685             
1 54679U 22166AP  26063.78245093  .00000113  00000+0  24254-3 0  9997
2 54679  87.9160 264.8069 0001394  90.9986 269.1307 13.21812682157620
ONEWEB-0712             
1 54680U 22166AQ  26063.79218690  .00000064  00000+0  13456-3 0  9990
2 54680  87.9002 249.5398 0001428 114.2871 245.8410 13.16593749158321
ONEWEB-0714             
1 54681U 22166AR  26063.48588304 -.00000145  00000+0 -38226-3 0  9993
2 54681  87.9164 264.8606 0001381  93.6849 266.4443 13.21824930157707
ONEWEB-0532             
1 55140U 23004A   26063.39330872  .00000030  00000+0  42979-4 0  9993
2 55140  87.9151  26.6727 0002014  71.0004 289.1345 13.17649501153780
ONEWEB-0533             
1 55141U 23004B   26063.78378278 -.00000072  00000+0 -23477-3 0  9998
2 55141  87.9000  11.3870 0001632  76.6719 283.4592 13.12441036154367
ONEWEB-0541             
1 55142U 23004C   26063.50312366 -.00000510  00000+0 -14750-2 0  9995
2 55142  87.8860  41.8660 0001990  82.9345 277.2009 13.11416915152222
ONEWEB-0543             
1 55143U 23004D   26063.75777079  .00000095  00000+0  20888-3 0  9995
2 55143  87.9230 356.2180 0001672  89.9167 270.2157 13.18686339155935
ONEWEB-0544             
1 55144U 23004E   26063.75117161  .00000085  00000+0  18286-3 0  9994
2 55144  87.9240 356.2161 0001994  84.6363 275.4996 13.18686483155931
ONEWEB-0560             
1 55145U 23004F   26063.82045074  .00000012  00000+0 -28203-5 0  9999
2 55145  87.9240 356.1921 0001926  85.2521 274.8831 13.18685644155954
ONEWEB-0565             
1 55146U 23004G   26063.35858736  .00000823  00000+0  20543-2 0  9990
2 55146  87.9232 356.3215 0002305  79.2472 280.8920 13.18691324155884
ONEWEB-0567             
1 55147U 23004H   26063.80725436  .00000018  00000+0  12925-4 0  9994
2 55147  87.9241 356.2066 0002209  83.8006 276.3377 13.18686332155941
ONEWEB-0569             
1 55148U 23004J   26063.26393654 -.00000181  00000+0 -52998-3 0  9994
2 55148  87.9052 341.0802 0002397  98.3599 261.7802 13.13470374156403
