[{"OBJECT_NAME":"ONEWEB-0611","OBJECT_ID":"2022-166AJ","EPOCH":"2026-03-04T13:40:32.808288","MEAN_MOTION":13.21827955,"ECCENTRICITY":0.0001719,"INCLINATION":87.9163,"RA_OF_ASC_NODE":264.8436,"ARG_OF_PERICENTER":95.1436,"MEAN_ANOMALY":264.9895,"EPHEMERIS_TYPE":0,"CLASSIFICATION_TYPE":"U","NORAD_CAT_ID":54674,"ELEMENT_SET_NO":999,"REV_AT_EPOCH":15762,"BSTAR":0.00016375,"MEAN_MOTION_DOT":8.1e-7,"MEAN_MOTION_DDOT":0},{"OBJECT_NAME":"ONEWEB-0612","OBJECT_ID":"2022-166AK","EPOCH":"2026-03-04T12:10:30.449568","MEAN_MOTION":13.21826558,"ECCENTRICITY":0.00014438,"INCLINATION":87.9176,"RA_OF_ASC_NODE":264.8394,"ARG_OF_PERICENTER":88.8433,"MEAN_ANOMALY":271.2866,"EPHEMERIS_TYPE":0,"CLASSIFICATION_TYPE":"U","NORAD_CAT_ID":54675,"ELEMENT_SET_NO":999,"REV_AT_EPOCH":15760,"BSTAR":0.00029974058,"MEAN_MOTION_DOT":1.37e-6,"MEAN_MOTION_DDOT":0},{"OBJECT_NAME":"ONEWEB-0615","OBJECT_ID":"2022-166AL","EPOCH":"2026-03-04T13:31:04.107072","MEAN_MOTION":13.21825829,"ECCENTRICITY":0.0001553,"INCLINATION":87.9164,"RA_OF_ASC_NODE":264.8523,"ARG_OF_PERICENTER":90.4548,"MEAN_ANOMALY":269.6763,"EPHEMERIS_TYPE":0,"CLASSIFICATION_TYPE":"U","NORAD_CAT_ID":54676,"ELEMENT_SET_NO":999,"REV_AT_EPOCH":15762,"BSTAR":0.00011424,"MEAN_MOTION_DOT":6.0e-7,"MEAN_MOTION_DDOT":0},{"OBJECT_NAME":"ONEWEB-0655","OBJECT_ID":"2022-166AM","EPOCH":"2026-03-04T11:06:31.239648","MEAN_MOTION":13.21826048,"ECCENTRICITY":0.00013596,"INCLINATION":87.9164,"RA_OF_ASC_NODE":264.8753,"ARG_OF_PERICENTER":96.0801,"MEAN_ANOMALY":264.0488,"EPHEMERIS_TYPE":0,"CLASSIFICATION_TYPE":"U","NORAD_CAT_ID":54677,"ELEMENT_SET_NO":999,"REV_AT_EPOCH":15760,"BSTAR":8.2155469e-5,"MEAN_MOTION_DOT":4.7e-7,"MEAN_MOTION_DDOT":0},{"OBJECT_NAME":"ONEWEB-0659","OBJECT_ID":"2022-166AN","EPOCH":"2026-03-04T18:46:12.970848","MEAN_MOTION":13.21827035,"ECCENTRICITY":0.0001683,"INCLINATION":87.9163,"RA_OF_ASC_NODE":264.8117,"ARG_OF_PERICENTER":90.0468,"MEAN_ANOMALY":270.0859,"EPHEMERIS_TYPE":0,"CLASSIFICATION_TYPE":"U","NORAD_CAT_ID":54678,"ELEMENT_SET_NO":999,"REV_AT_EPOCH":15773,"BSTAR":9.225e-5,"MEAN_MOTION_DOT":5.1e-7,"MEAN_MOTION_DDOT":0},{"OBJECT_NAME":"ONEWEB-0685","OBJECT_ID":"2022-166AP","EPOCH":"2026-03-04T18:46:43.760352","MEAN_MOTION":13.21812682,"ECCENTRICITY":0.0001394,"INCLINATION":87.916,"RA_OF_ASC_NODE":264.8069,"ARG_OF_PERICENTER":90.9986,"MEAN_ANOMALY":269.1307,"EPHEMERIS_TYPE":0,"CLASSIFICATION_TYPE":"U","NORAD_CAT_ID":54679,"ELEMENT_SET_NO":999,"REV_AT_EPOCH":15762,"BSTAR":0.00024254,"MEAN_MOTION_DOT":1.13e-6,"MEAN_MOTION_DDOT":0},{"OBJECT_NAME":"ONEWEB-0712","OBJECT_ID":"2022-166AQ","EPOCH":"2026-03-04T19:00:44.948160","MEAN_MOTION":13.16593749,"ECCENTRICITY":0.0001428,"INCLINATION":87.9002,"RA_OF_ASC_NODE":249.5398,"ARG_OF_PERICENTER":114.2871,"MEAN_ANOMALY":245.841,"EPHEMERIS_TYPE":0,"CLASSIFICATION_TYPE":"U","NORAD_CAT_ID":54680,"ELEMENT_SET_NO":999,"REV_AT_EPOCH":15832,"BSTAR":0.00013456,"MEAN_MOTION_DOT":6.4e-7,"MEAN_MOTION_DDOT":0},{"OBJECT_NAME":"ONEWEB-0714","OBJECT_ID":"2022-166AR","EPOCH":"2026-03-04T11:39:40.294656","MEAN_MOTION":13.2182493,"ECCENTRICITY":0.00013816,"INCLINATION":87.9164,"RA_OF_ASC_NODE":264.8606,"ARG_OF_PERICENTER":93.6849,"MEAN_ANOMALY":266.4443,"EPHEMERIS_TYPE":0,"CLASSIFICATION_TYPE":"U","NORAD_CAT_ID":54681,"ELEMENT_SET_NO":999,"REV_AT_EPOCH":15770,"BSTAR":-0.00038226475,"MEAN_MOTION_DOT":-1.45e-6,"MEAN_MOTION_DDOT":0},{"OBJECT_NAME":"ONEWEB-0532","OBJECT_ID":"2023-004A","EPOCH":"2026-03-04T09:26:21.873408","MEAN_MOTION":13.17649501,"ECCENTRICITY":0.00020141,"INCLINATION":87.9151,"RA_OF_ASC_NODE":26.6727,"ARG_OF_PERICENTER":71.0004,"MEAN_ANOMALY":289.1345,"EPHEMERIS_TYPE":0,"CLASSIFICATION_TYPE":"U","NORAD_CAT_ID":55140,"ELEMENT_SET_NO":999,"REV_AT_EPOCH":15378,"BSTAR":4.2979159e-5,"MEAN_MOTION_DOT":3.0e-7,"MEAN_MOTION_DDOT":0},{"OBJECT_NAME":"ONEWEB-0533","OBJECT_ID":"2023-004B","EPOCH":"2026-03-04T18:48:38.832192","MEAN_MOTION":13.12441036,"ECCENTRICITY":0.0001632,"INCLINATION":87.9,"RA_OF_ASC_NODE":11.387,"ARG_OF_PERICENTER":76.6719,"MEAN_ANOMALY":283.4592,"EPHEMERIS_TYPE":0,"CLASSIFICATION_TYPE":"U","NORAD_CAT_ID":55141,"ELEMENT_SET_NO":999,"REV_AT_EPOCH":15436,"BSTAR":-0.00023477,"MEAN_MOTION_DOT":-7.2e-7,"MEAN_MOTION_DDOT":0},{"OBJECT_NAME":"ONEWEB-0541","OBJECT_ID":"2023-004C","EPOCH":"2026-03-04T12:04:29.884224","MEAN_MOTION":13.11416915,"ECCENTRICITY":0.000199,"INCLINATION":87.886,"RA_OF_ASC_NODE":41.866,"ARG_OF_PERICENTER":82.9345,"MEAN_ANOMALY":277.2009,"EPHEMERIS_TYPE":0,"CLASSIFICATION_TYPE":"U","NORAD_CAT_ID":55142,"ELEMENT_SET_NO":999,"REV_AT_EPOCH":15222,"BSTAR":-0.001475,"MEAN_MOTION_DOT":-5.1e-6,"MEAN_MOTION_DDOT":0},{"OBJECT_NAME":"ONEWEB-0543","OBJECT_ID":"2023-004D","EPOCH":"2026-03-04T18:11:11.396256","MEAN_MOTION":13.18686339,"ECCENTRICITY":0.0001672,"INCLINATION":87.923,"RA_OF_ASC_NODE":356.218,"ARG_OF_PERICENTER":89.9167,"MEAN_ANOMALY":270.2157,"EPHEMERIS_TYPE":0,"CLASSIFICATION_TYPE":"U","NORAD_CAT_ID":55143,"ELEMENT_SET_NO":999,"REV_AT_EPOCH":15593,"BSTAR":0.00020888,"MEAN_MOTION_DOT":9.5e-7,"MEAN_MOTION_DDOT":0},{"OBJECT_NAME":"ONEWEB-0544","OBJECT_ID":"2023-004E","EPOCH":"2026-03-04T18:01:41.227104","MEAN_MOTION":13.18686483,"ECCENTRICITY":0.0001994,"INCLINATION":87.924,"RA_OF_ASC_NODE":356.2161,"ARG_OF_PERICENTER":84.6363,"MEAN_ANOMALY":275.4996,"EPHEMERIS_TYPE":0,"CLASSIFICATION_TYPE":"U","NORAD_CAT_ID":55144,"ELEMENT_SET_NO":999,"REV_AT_EPOCH":15593,"BSTAR":0.00018286,"MEAN_MOTION_DOT":8.5e-7,"MEAN_MOTION_DDOT":0},{"OBJECT_NAME":"ONEWEB-0560","OBJECT_ID":"2023-004F","EPOCH":"2026-03-04T19:41:26.943936","MEAN_MOTION":13.18685644,"ECCENTRICITY":0.0001926,"INCLINATION":87.924,"RA_OF_ASC_NODE":356.1921,"ARG_OF_PERICENTER":85.2521,"MEAN_ANOMALY":274.8831,"EPHEMERIS_TYPE":0,"CLASSIFICATION_TYPE":"U","NORAD_CAT_ID":55145,"ELEMENT_SET_NO":999,"REV_AT_EPOCH":15595,"BSTAR":-2.8203e-6,"MEAN_MOTION_DOT":1.2e-7,"MEAN_MOTION_DDOT":0},{"OBJECT_NAME":"ONEWEB-0565","OBJECT_ID":"2023-004G","EPOCH":"2026-03-04T08:36:21.947904","MEAN_MOTION":13.18691324,"ECCENTRICITY":0.00023058,"INCLINATION":87.9232,"RA_OF_ASC_NODE":356.3215,"ARG_OF_PERICENTER":79.2472,"MEAN_ANOMALY":280.892,"EPHEMERIS_TYPE":0,"CLASSIFICATION_TYPE":"U","NORAD_CAT_ID":55146,"ELEMENT_SET_NO":999,"REV_AT_EPOCH":15588,"BSTAR":0.0020542839,"MEAN_MOTION_DOT":8.23e-6,"MEAN_MOTION_DDOT":0},{"OBJECT_NAME":"ONEWEB-0567","OBJECT_ID":"2023-004H","EPOCH":"2026-03-04T19:22:26.776704","MEAN_MOTION":13.18686332,"ECCENTRICITY":0.0002209,"INCLINATION":87.9241,"RA_OF_ASC_NODE":356.2066,"ARG_OF_PERICENTER":83.8006,"MEAN_ANOMALY":276.3377,"EPHEMERIS_TYPE":0,"CLASSIFICATION_TYPE":"U","NORAD_CAT_ID":55147,"ELEMENT_SET_NO":999,"REV_AT_EPOCH":15594,"BSTAR":1.2925e-5,"MEAN_MOTION_DOT":1.8e-7,"MEAN_MOTION_DDOT":0},{"OBJECT_NAME":"ONEWEB-0569","OBJECT_ID":"2023-004J","EPOCH":"2026-03-04T06:20:04.117056","MEAN_MOTION":13.13470374,"ECCENTRICITY":0.00023971,"INCLINATION":87.9052,"RA_OF_ASC_NODE":341.0802,"ARG_OF_PERICENTER":98.3599,"MEAN_ANOMALY":261.7802,"EPHEMERIS_TYPE":0,"CLASSIFICATION_TYPE":"U","NORAD_CAT_ID":55148,"ELEMENT_SET_NO":999,"REV_AT_EPOCH":15640,"BSTAR":-0.0005299757,"MEAN_MOTION_DOT":-1.81e-6,"MEAN_MOTION_DDOT":0}]
